{
  "type": "FeatureCollection",
  "features": [
    {
      "type": "Feature",
      "properties": {
        "norad_id": 54259,
        "name": "EUTELSAT 10B",
        "group": "eutelsat",
        "lat": 0.04997348479663327,
        "lon": 170.49129332984023,
        "alt_km": 35784.20124990143,
        "timestamp": "2025-12-17T04:57:44.071257+00:00",
        "meta_object_name": "EUTELSAT 10B",
        "meta_object_id": "2022-157A",
        "meta_epoch": "2025-12-16T18:32:23.789184",
        "meta_mean_motion": 1.00271819,
        "meta_eccentricity": 6.785e-05,
        "meta_inclination": 0.0623,
        "meta_ra_of_asc_node": 99.2195,
        "meta_arg_of_pericenter": 21.2994,
        "meta_mean_anomaly": 253.2156,
        "meta_ephemeris_type": 0,
        "meta_classification_type": "U",
        "meta_norad_cat_id": 54259,
        "meta_element_set_no": 999,
        "meta_rev_at_epoch": 1119,
        "meta_bstar": 0,
        "meta_mean_motion_dot": 9.2e-07,
        "meta_mean_motion_ddot": 0,
        "tle_line1": "1 54259U 22157A   25350.77249756  .00000092  00000+0  00000+0 0  9993",
        "tle_line2": "2 54259   0.0623  99.2195 0000678  21.2994 253.2156  1.00271819 11196"
      },
      "geometry": {
        "type": "Point",
        "coordinates": [
          170.49129332984023,
          0.04997348479663327
        ]
      }
    },
    {
      "type": "Feature",
      "properties": {
        "norad_id": 59346,
        "name": "EUTELSAT 36D",
        "group": "eutelsat",
        "lat": -0.016720008517372077,
        "lon": -163.66375533115033,
        "alt_km": 35787.8218881142,
        "timestamp": "2025-12-17T04:57:44.071267+00:00",
        "meta_object_name": "EUTELSAT 36D",
        "meta_object_id": "2024-059A",
        "meta_epoch": "2025-12-16T15:14:19.027680",
        "meta_mean_motion": 1.00271145,
        "meta_eccentricity": 3.915e-05,
        "meta_inclination": 0.0246,
        "meta_ra_of_asc_node": 4.3594,
        "meta_arg_of_pericenter": 5.8864,
        "meta_mean_anomaly": 339.6859,
        "meta_ephemeris_type": 0,
        "meta_classification_type": "U",
        "meta_norad_cat_id": 59346,
        "meta_element_set_no": 999,
        "meta_rev_at_epoch": 631,
        "meta_bstar": 0,
        "meta_mean_motion_dot": 0,
        "meta_mean_motion_ddot": 0,
        "tle_line1": "1 59346U 24059A   25350.63494245  .00000000  00000+0  00000+0 0  9997",
        "tle_line2": "2 59346   0.0246   4.3594 0000391   5.8864 339.6859  1.00271145  6314"
      },
      "geometry": {
        "type": "Point",
        "coordinates": [
          -163.66375533115033,
          -0.016720008517372077
        ]
      }
    }
  ]
}